IRIDIUM 116             
1 43072U 17083C   24078.17906443  .00000038  00000+0  66790-5 0  9993
2 43072  86.3943 305.1447 0002127  82.4824 277.6613 14.34217697326495
IRIDIUM 130             
1 43073U 17083D   24078.14735156  .00000275  00000+0  91181-4 0  9996
2 43073  86.3955 305.3531 0002228  92.5813 267.5638 14.34216647326430
IRIDIUM 151             
1 43074U 17083E   24078.12198034  .00000069  00000+0  17436-4 0  9995
2 43074  86.3945 305.2077 0001759  83.1100 277.0296 14.34217885326450
IRIDIUM 134             
1 43075U 17083F   24078.16003807  .00000220  00000+0  71633-4 0  9991
2 43075  86.3949 305.1888 0002282  89.0113 271.1345 14.34218620326420
IRIDIUM 137             
1 43076U 17083G   24078.17271861  .00000251  00000+0  82488-4 0  9994
2 43076  86.3951 305.2596 0002018  75.6880 284.4540 14.34216776326491
IRIDIUM 141             
1 43077U 17083H   24078.16637897  .00000174  00000+0  54920-4 0  9993
2 43077  86.3944 305.1396 0002026  88.3256 271.8172 14.34217941326494
IRIDIUM 153             
1 43078U 17083J   24078.46739975  .00000045  00000+0  89234-5 0  9991
2 43078  86.3912 273.4440 0001762 101.3067 258.8327 14.34217379327649
IRIDIUM 131             
1 43079U 17083K   24078.15369411  .00000056  00000+0  12954-4 0  9998
2 43079  86.3951 305.2762 0002082  83.2060 276.9372 14.34217881326425
